{
  "type": "FeatureCollection",
  "features": [
    {
      "type": "Feature",
      "properties": {
        "norad_id": 29268,
        "name": "ARIRANG-2 (KOMPSAT-2)",
        "group": "resource",
        "lat": 27.164348051586234,
        "lon": -6.404328886825224,
        "alt_km": 687.400628114462,
        "timestamp": "2025-12-06T18:50:09.827340+00:00",
        "meta_object_name": "ARIRANG-2 (KOMPSAT-2)",
        "meta_object_id": "2006-031A",
        "meta_epoch": "2025-12-06T07:27:02.001312",
        "meta_mean_motion": 14.6448516,
        "meta_eccentricity": 0.00138205,
        "meta_inclination": 97.8271,
        "meta_ra_of_asc_node": 169.0969,
        "meta_arg_of_pericenter": 330.4884,
        "meta_mean_anomaly": 202.3961,
        "meta_ephemeris_type": 0,
        "meta_classification_type": "U",
        "meta_norad_cat_id": 29268,
        "meta_element_set_no": 999,
        "meta_rev_at_epoch": 3324,
        "meta_bstar": 0.00015745066,
        "meta_mean_motion_dot": 7.9e-06,
        "meta_mean_motion_ddot": 0,
        "tle_line1": "1 29268U 06031A   25340.31043983  .00000790  00000+0  15745-3 0  9992",
        "tle_line2": "2 29268  97.8271 169.0969 0013820 330.4884 202.3961 14.64485160 33241"
      },
      "geometry": {
        "type": "Point",
        "coordinates": [
          -6.404328886825224,
          27.164348051586234
        ]
      }
    },
    {
      "type": "Feature",
      "properties": {
        "norad_id": 29709,
        "name": "LAPAN-TUBSAT",
        "group": "resource",
        "lat": -6.592639267950248,
        "lon": -28.234842780345065,
        "alt_km": 616.7191782255704,
        "timestamp": "2025-12-06T18:50:09.827351+00:00",
        "meta_object_name": "LAPAN-TUBSAT",
        "meta_object_id": "2007-001A",
        "meta_epoch": "2025-12-06T05:56:04.288704",
        "meta_mean_motion": 14.85655968,
        "meta_eccentricity": 0.00136364,
        "meta_inclination": 98.1251,
        "meta_ra_of_asc_node": 330.2705,
        "meta_arg_of_pericenter": 93.467,
        "meta_mean_anomaly": 266.8105,
        "meta_ephemeris_type": 0,
        "meta_classification_type": "U",
        "meta_norad_cat_id": 29709,
        "meta_element_set_no": 999,
        "meta_rev_at_epoch": 2250,
        "meta_bstar": 0.00016072693,
        "meta_mean_motion_dot": 1.337e-05,
        "meta_mean_motion_ddot": 0,
        "tle_line1": "1 29709U 07001A   25340.24727186  .00001337  00000+0  16073-3 0  9999",
        "tle_line2": "2 29709  98.1251 330.2705 0013636  93.4670 266.8105 14.85655968 22507"
      },
      "geometry": {
        "type": "Point",
        "coordinates": [
          -28.234842780345065,
          -6.592639267950248
        ]
      }
    },
    {
      "type": "Feature",
      "properties": {
        "norad_id": 31113,
        "name": "HAIYANG-1B",
        "group": "resource",
        "lat": -30.163288403790098,
        "lon": -29.805847007187257,
        "alt_km": 793.4871330846981,
        "timestamp": "2025-12-06T18:50:09.827362+00:00",
        "meta_object_name": "HAIYANG-1B",
        "meta_object_id": "2007-010A",
        "meta_epoch": "2025-12-06T05:33:10.720512",
        "meta_mean_motion": 14.30961622,
        "meta_eccentricity": 0.00145223,
        "meta_inclination": 98.3309,
        "meta_ra_of_asc_node": 324.7786,
        "meta_arg_of_pericenter": 56.035,
        "meta_mean_anomaly": 304.2212,
        "meta_ephemeris_type": 0,
        "meta_classification_type": "U",
        "meta_norad_cat_id": 31113,
        "meta_element_set_no": 999,
        "meta_rev_at_epoch": 97303,
        "meta_bstar": 0.00010628393,
        "meta_mean_motion_dot": 2.38e-06,
        "meta_mean_motion_ddot": 0,
        "tle_line1": "1 31113U 07010A   25340.23137408  .00000238  00000+0  10628-3 0  9991",
        "tle_line2": "2 31113  98.3309 324.7786 0014522  56.0350 304.2212 14.30961622973033"
      },
      "geometry": {
        "type": "Point",
        "coordinates": [
          -29.805847007187257,
          -30.163288403790098
        ]
      }
    },
    {
      "type": "Feature",
      "properties": {
        "norad_id": 31598,
        "name": "COSMO-SKYMED 1",
        "group": "resource",
        "lat": 81.00654947376253,
        "lon": 47.250498843234354,
        "alt_km": 571.9860812513143,
        "timestamp": "2025-12-06T18:50:09.827373+00:00",
        "meta_object_name": "COSMO-SKYMED 1",
        "meta_object_id": "2007-023A",
        "meta_epoch": "2025-12-06T05:34:16.457952",
        "meta_mean_motion": 14.95693053,
        "meta_eccentricity": 0.00011841,
        "meta_inclination": 97.8836,
        "meta_ra_of_asc_node": 165.5893,
        "meta_arg_of_pericenter": 78.4575,
        "meta_mean_anomaly": 281.6778,
        "meta_ephemeris_type": 0,
        "meta_classification_type": "U",
        "meta_norad_cat_id": 31598,
        "meta_element_set_no": 999,
        "meta_rev_at_epoch": 93,
        "meta_bstar": 0.000579071,
        "meta_mean_motion_dot": 6.388e-05,
        "meta_mean_motion_ddot": 0,
        "tle_line1": "1 31598U 07023A   25340.23213493  .00006388  00000+0  57907-3 0  9994",
        "tle_line2": "2 31598  97.8836 165.5893 0001184  78.4575 281.6778 14.95693053   932"
      },
      "geometry": {
        "type": "Point",
        "coordinates": [
          47.250498843234354,
          81.00654947376253
        ]
      }
    },
    {
      "type": "Feature",
      "properties": {
        "norad_id": 31698,
        "name": "TERRASAR-X",
        "group": "resource",
        "lat": -30.76945038372561,
        "lon": -9.2823258110364,
        "alt_km": 514.8599311533444,
        "timestamp": "2025-12-06T18:50:09.827383+00:00",
        "meta_object_name": "TERRASAR-X",
        "meta_object_id": "2007-026A",
        "meta_epoch": "2025-12-05T14:31:03.290880",
        "meta_mean_motion": 15.19155481,
        "meta_eccentricity": 0.00018634,
        "meta_inclination": 97.4446,
        "meta_ra_of_asc_node": 345.0897,
        "meta_arg_of_pericenter": 81.8163,
        "meta_mean_anomaly": 278.3283,
        "meta_ephemeris_type": 0,
        "meta_classification_type": "U",
        "meta_norad_cat_id": 31698,
        "meta_element_set_no": 999,
        "meta_rev_at_epoch": 2383,
        "meta_bstar": 0.00015422933,
        "meta_mean_motion_dot": 3.174e-05,
        "meta_mean_motion_ddot": 0,
        "tle_line1": "1 31698U 07026A   25339.60489920  .00003174  00000+0  15423-3 0  9994",
        "tle_line2": "2 31698  97.4446 345.0897 0001863  81.8163 278.3283 15.19155481 23833"
      },
      "geometry": {
        "type": "Point",
        "coordinates": [
          -9.2823258110364,
          -30.76945038372561
        ]
      }
    },
    {
      "type": "Feature",
      "properties": {
        "norad_id": 32060,
        "name": "WORLDVIEW-1 (WV-1)",
        "group": "resource",
        "lat": -33.26277473277848,
        "lon": -86.52949513111236,
        "alt_km": 498.5948501953462,
        "timestamp": "2025-12-06T18:50:09.827394+00:00",
        "meta_object_name": "WORLDVIEW-1 (WV-1)",
        "meta_object_id": "2007-041A",
        "meta_epoch": "2025-12-06T05:18:01.806336",
        "meta_mean_motion": 15.24526968,
        "meta_eccentricity": 7.11e-05,
        "meta_inclination": 97.3845,
        "meta_ra_of_asc_node": 97.7948,
        "meta_arg_of_pericenter": 101.3925,
        "meta_mean_anomaly": 258.7393,
        "meta_ephemeris_type": 0,
        "meta_classification_type": "U",
        "meta_norad_cat_id": 32060,
        "meta_element_set_no": 999,
        "meta_rev_at_epoch": 1348,
        "meta_bstar": 0.00059965608,
        "meta_mean_motion_dot": 0.00014699,
        "meta_mean_motion_ddot": 0,
        "tle_line1": "1 32060U 07041A   25340.22085424  .00014699  00000+0  59966-3 0  9990",
        "tle_line2": "2 32060  97.3845  97.7948 0000711 101.3925 258.7393 15.24526968 13484"
      },
      "geometry": {
        "type": "Point",
        "coordinates": [
          -86.52949513111236,
          -33.26277473277848
        ]
      }
    },
    {
      "type": "Feature",
      "properties": {
        "norad_id": 32289,
        "name": "YAOGAN-3",
        "group": "resource",
        "lat": 68.4337060384454,
        "lon": -12.92970751807465,
        "alt_km": 590.8000517201381,
        "timestamp": "2025-12-06T18:50:09.827404+00:00",
        "meta_object_name": "YAOGAN-3",
        "meta_object_id": "2007-055A",
        "meta_epoch": "2025-12-06T07:14:24.913536",
        "meta_mean_motion": 14.89812688,
        "meta_eccentricity": 0.0001526,
        "meta_inclination": 97.8368,
        "meta_ra_of_asc_node": 6.9851,
        "meta_arg_of_pericenter": 77.9657,
        "meta_mean_anomaly": 282.1732,
        "meta_ephemeris_type": 0,
        "meta_classification_type": "U",
        "meta_norad_cat_id": 32289,
        "meta_element_set_no": 999,
        "meta_rev_at_epoch": 97713,
        "meta_bstar": 0.00053385698,
        "meta_mean_motion_dot": 5.07e-05,
        "meta_mean_motion_ddot": 0,
        "tle_line1": "1 32289U 07055A   25340.30167724  .00005070  00000+0  53386-3 0  9994",
        "tle_line2": "2 32289  97.8368   6.9851 0001526  77.9657 282.1732 14.89812688977138"
      },
      "geometry": {
        "type": "Point",
        "coordinates": [
          -12.92970751807465,
          68.4337060384454
        ]
      }
    }
  ]
}